NORAD_CAT_ID,OBJECT_NAME,OBJECT_TYPE,EPOCH,MEAN_MOTION,ECCENTRICITY,INCLINATION,RA_OF_ASC_NODE,ARG_OF_PERICENTER,MEAN_ANOMALY,BSTAR,MEAN_MOTION_DOT,MEAN_MOTION_DDOT,TLE_LINE0,TLE_LINE1,TLE_LINE2,SEMIMAJOR_AXIS,PERIOD,APOGEE,PERIGEE,DECAYED
56796.0,STARLINK-6049,PAYLOAD,2024-06-24 20:36:25,14.98329782,0.0002552,70.0008,114.9368,266.1752,93.9115,-1.0135e-05,-2.14e-06,0.0,0 STARLINK-6049,1 56796U 23078AF  24176.85862838 -.00000214  00000-0 -10135-4 0  9994,2 56796  70.0008 114.9368 0002552 266.1752  93.9115 14.98329782 59640,6950.194,96.107,573.832,570.285,0.0
56796.0,STARLINK-6049,PAYLOAD,2024-06-24 22:12:33,14.98328937,0.0002568,70.0007,114.7688,265.7934,94.2932,-2.2161e-05,-3.57e-06,0.0,0 STARLINK-6049,1 56796U 23078AF  24176.92538916 -.00000357  00000-0 -22161-4 0  9999,2 56796  70.0007 114.7688 0002568 265.7934  94.2932 14.98328937 59390,6950.196,96.107,573.846,570.276,0.0
56796.0,STARLINK-6049,PAYLOAD,2024-06-25 04:37:06,14.98326626,0.0002613,70.0006,114.0957,265.7786,94.3074,-5.0874e-05,-7e-06,0.0,0 STARLINK-6049,1 56796U 23078AF  24177.19243158 -.00000700  00000-0 -50874-4 0  9994,2 56796  70.0006 114.0957 0002613 265.7786  94.3074 14.98326626 59433,6950.203,96.107,573.884,570.252,0.0
56796.0,STARLINK-6049,PAYLOAD,2024-06-25 20:38:25,14.98336409,0.0002659,70.0004,112.4123,267.2207,92.8647,1.2519e-05,5.6e-07,0.0,0 STARLINK-6049,1 56796U 23078AF  24177.86002305  .00000056  00000-0  12519-4 0  9991,2 56796  70.0004 112.4123 0002659 267.2207  92.8647 14.98336409 59791,6950.173,96.107,573.886,570.19,0.0
56796.0,STARLINK-6049,PAYLOAD,2024-06-25 22:14:34,14.98336365,0.0002663,70.0004,112.244,266.93,93.1555,1.2384e-05,5.5e-07,0.0,0 STARLINK-6049,1 56796U 23078AF  24177.92678280  .00000055  00000-0  12384-4 0  9998,2 56796  70.0004 112.2440 0002663 266.9300  93.1555 14.98336365 59542,6950.173,96.107,573.889,570.187,0.0
56796.0,STARLINK-6049,PAYLOAD,2024-06-26 04:39:05,14.98339764,0.0002614,70.0005,111.5708,267.2515,92.8345,5.45e-05,5.58e-06,0.0,0 STARLINK-6049,1 56796U 23078AF  24178.19381854  .00000558  00000-0  54500-4 0  9990,2 56796  70.0005 111.5708 0002614 267.2515  92.8345 14.98339764 59583,6950.163,96.106,573.844,570.211,0.0
56796.0,STARLINK-6049,PAYLOAD,2024-06-27 04:41:07,14.98323305,0.0002546,70.0008,109.0461,269.4453,90.6414,4.3122e-05,4.22e-06,0.0,0 STARLINK-6049,1 56796U 23078AF  24179.19523035  .00000422  00000-0  43122-4 0  9998,2 56796  70.0008 109.0461 0002546 269.4453  90.6414 14.98323305 59995,6950.214,96.107,573.848,570.309,0.0
56796.0,STARLINK-6049,PAYLOAD,2024-06-27 22:18:36,14.98327401,0.0002785,70.0004,107.1934,270.4406,89.6434,-1.0877e-05,-2.23e-06,0.0,0 STARLINK-6049,1 56796U 23078AF  24179.92958968 -.00000223  00000-0 -10877-4 0  9998,2 56796  70.0004 107.1934 0002785 270.4406  89.6434 14.98327401 59845,6950.201,96.107,574.002,570.13,0.0
56796.0,STARLINK-6049,PAYLOAD,2024-06-28 04:43:08,14.98333212,0.0002876,70.0005,106.5218,270.6118,89.4711,-2.0028e-06,-1.17e-06,0.0,0 STARLINK-6049,1 56796U 23078AF  24180.19662602 -.00000117  00000-0 -20028-5 0  9998,2 56796  70.0005 106.5218 0002876 270.6118  89.4711 14.98333212 60145,6950.183,96.107,574.047,570.049,0.0
56796.0,STARLINK-6049,PAYLOAD,2024-06-28 12:43:48,14.98339926,0.0002953,70.0001,105.6786,270.1799,89.9022,-4.1299e-06,-1.42e-06,0.0,0 STARLINK-6049,1 56796U 23078AF  24180.53042057 -.00000142  00000-0 -41299-5 0  9993,2 56796  70.0001 105.6786 0002953 270.1799  89.9022 14.98339926 59930,6950.162,96.106,574.08,569.975,0.0
56796.0,STARLINK-6049,PAYLOAD,2024-06-28 20:44:28,14.98338208,0.0003066,70.0,104.8369,271.3331,88.7477,0.00013342,1.5e-05,0.0,0 STARLINK-6049,1 56796U 23078AF  24180.86421770  .00001500  00000-0  13342-3 0  9995,2 56796  70.0000 104.8369 0003066 271.3331  88.7477 14.98338208 60247,6950.168,96.106,574.163,569.902,0.0
56796.0,STARLINK-6049,PAYLOAD,2024-06-28 22:20:36,14.98338802,0.0003064,70.0,104.6686,271.3058,88.775,0.0001392,1.569e-05,0.0,0 STARLINK-6049,1 56796U 23078AF  24180.93097694  .00001569  00000-0  13920-3 0  9994,2 56796  70.0000 104.6686 0003064 271.3058  88.7750 14.98338802 59995,6950.166,96.106,574.16,569.901,0.0
56796.0,STARLINK-6049,PAYLOAD,2024-06-29 04:45:07,14.98349483,0.0002997,70.0002,103.9955,271.4483,88.6332,0.00025808,2.989e-05,0.0,0 STARLINK-6049,1 56796U 23078AF  24181.19800625  .00002989  00000-0  25808-3 0  9994,2 56796  70.0002 103.9955 0002997 271.4483  88.6332 14.98349483 60292,6950.133,96.106,574.081,569.915,0.0
56796.0,STARLINK-6049,PAYLOAD,2024-06-29 12:45:49,14.98329423,0.0003072,70.0001,103.1539,269.7429,90.3378,3.49e-05,3.23e-06,0.0,0 STARLINK-6049,1 56796U 23078AF  24181.53182306  .00000323  00000-0  34900-4 0  9995,2 56796  70.0001 103.1539 0003072 269.7429  90.3378 14.98329423 60085,6950.195,96.107,574.195,569.925,0.0
56796.0,STARLINK-6049,PAYLOAD,2024-06-29 19:10:22,14.98321851,0.0002679,69.9999,102.4803,267.1814,92.9038,1.7856e-05,1.2e-06,0.0,0 STARLINK-6049,1 56796U 23078AF  24181.79887130  .00000120  00000-0  17856-4 0  9996,2 56796  69.9999 102.4803 0002679 267.1814  92.9038 14.98321851 60387,6950.218,96.108,573.945,570.221,0.0
56796.0,STARLINK-6049,PAYLOAD,2024-06-29 22:22:38,14.98320852,0.000271,69.9998,102.1438,267.1332,92.9517,8.0505e-06,3e-08,0.0,0 STARLINK-6049,1 56796U 23078AF  24181.93239318  .00000003  00000-0  80505-5 0  9993,2 56796  69.9998 102.1438 0002710 267.1332  92.9517 14.98320852 60144,6950.221,96.108,573.97,570.203,0.0
56796.0,STARLINK-6049,PAYLOAD,2024-06-30 04:47:11,14.983244,0.0002744,70.0002,101.4712,269.1708,90.9136,-2.2917e-05,-3.66e-06,0.0,0 STARLINK-6049,1 56796U 23078AF  24182.19943340 -.00000366  00000-0 -22917-4 0  9995,2 56796  70.0002 101.4712 0002744 269.1708  90.9136 14.98324400 60188,6950.21,96.107,573.982,570.168,0.0
56796.0,STARLINK-6049,PAYLOAD,2024-06-30 20:48:30,14.98334421,0.0002735,70.0012,99.788,268.5233,91.5613,4.5546e-06,-3.9e-07,0.0,0 STARLINK-6049,1 56796U 23078AF  24182.86702401 -.00000039  00000-0  45546-5 0  9990,2 56796  70.0012  99.7880 0002735 268.5233  91.5613 14.98334421 60541,6950.179,96.107,573.945,570.143,0.0
56796.0,STARLINK-6049,PAYLOAD,2024-06-30 22:24:38,14.98334597,0.0002747,70.0012,99.6197,268.3488,91.7356,2.2078e-05,1.71e-06,0.0,0 STARLINK-6049,1 56796U 23078AF  24182.93378399  .00000171  00000-0  22078-4 0  9993,2 56796  70.0012  99.6197 0002747 268.3488  91.7356 14.98334597 60296,6950.179,96.107,573.953,570.134,0.0
56796.0,STARLINK-6049,PAYLOAD,2024-07-01 11:13:43,14.98332525,0.0002562,70.0018,98.2731,269.1427,90.9438,0.00016503,1.877e-05,0.0,0 STARLINK-6049,1 56796U 23078AF  24183.46786539  .00001877  00000-0  16503-3 0  9990,2 56796  70.0018  98.2731 0002562 269.1427  90.9438 14.98332525 60378,6950.185,96.107,573.831,570.269,0.0
56796.0,STARLINK-6049,PAYLOAD,2024-07-01 19:14:24,14.98330021,0.0002487,70.002,97.4314,269.7561,90.3313,0.00026648,3.088e-05,0.0,0 STARLINK-6049,1 56796U 23078AF  24183.80166801  .00003088  00000-0  26648-3 0  9999,2 56796  70.0020  97.4314 0002487 269.7561  90.3313 14.98330021 60689,6950.193,96.107,573.786,570.329,0.0
56796.0,STARLINK-6049,PAYLOAD,2024-07-01 22:26:40,14.98330755,0.0002507,70.002,97.0948,269.5335,90.5537,0.00025346,2.933e-05,0.0,0 STARLINK-6049,1 56796U 23078AF  24183.93518790  .00002933  00000-0  25346-3 0  9993,2 56796  70.0020  97.0948 0002507 269.5335  90.5537 14.98330755 60446,6950.191,96.107,573.798,570.313,0.0
56796.0,STARLINK-6049,PAYLOAD,2024-07-02 11:15:44,14.9833035,0.0002729,70.0011,95.7463,274.594,85.4908,6.2098e-05,6.48e-06,0.0,0 STARLINK-6049,1 56796U 23078AF  24184.46926665  .00000648  00000-0  62098-4 0  9993,2 56796  70.0011  95.7463 0002729 274.5940  85.4908 14.98330350 60522,6950.192,96.107,573.954,570.16,0.0
56796.0,STARLINK-6049,PAYLOAD,2024-07-02 20:52:33,14.98332407,0.0002867,70.0005,94.7361,276.6667,83.4166,1.4938e-05,8.5e-07,0.0,0 STARLINK-6049,1 56796U 23078AF  24184.86982680  .00000085  00000-0  14938-4 0  9991,2 56796  70.0005  94.7361 0002867 276.6667  83.4166 14.98332407 60847,6950.185,96.107,574.043,570.058,0.0
56796.0,STARLINK-6049,PAYLOAD,2024-07-02 22:28:41,14.98330398,0.0002936,70.0016,94.5679,280.3246,79.7582,4.9901e-05,5.02e-06,0.0,0 STARLINK-6049,1 56796U 23078AF  24184.93658814  .00000502  00000-0  49901-4 0  9990,2 56796  70.0016  94.5679 0002936 280.3246  79.7582 14.98330398 60590,6950.192,96.107,574.097,570.016,0.0
56796.0,STARLINK-6049,PAYLOAD,2024-07-03 11:17:45,14.98342576,0.00027,70.0021,93.222,277.2159,82.8693,-0.00030877,-3.776e-05,0.0,0 STARLINK-6049,1 56796U 23078AF  24185.47065992 -.00003776  00000-0 -30877-3 0  9998,2 56796  70.0021  93.2220 0002700 277.2159  82.8693 14.98342576 60938,6950.154,96.106,573.896,570.142,0.0
56796.0,STARLINK-6049,PAYLOAD,2024-07-03 19:18:25,14.98330894,0.00027,70.0017,92.382,272.8586,87.2264,0.0001286,1.442e-05,0.0,0 STARLINK-6049,1 56796U 23078AF  24185.80446748  .00001442  00000-0  12860-3 0  9995,2 56796  70.0017  92.3820 0002700 272.8586  87.2264 14.98330894 60982,6950.19,96.107,573.932,570.179,0.0
56796.0,STARLINK-6049,PAYLOAD,2024-07-03 22:30:42,14.98330977,0.0002692,70.0016,92.0453,272.6738,87.4113,0.00011711,1.305e-05,0.0,0 STARLINK-6049,1 56796U 23078AF  24185.93798760  .00001305  00000-0  11711-3 0  9995,2 56796  70.0016  92.0453 0002692 272.6738  87.4113 14.98330977 60748,6950.19,96.107,573.926,570.184,0.0
56796.0,STARLINK-6049,PAYLOAD,2024-07-04 11:19:45,14.98342437,0.0002886,70.0019,90.7001,268.6541,91.4287,-0.0003221,-3.935e-05,0.0,0 STARLINK-6049,1 56796U 23078AF  24186.47205878 -.00003935  00000-0 -32210-3 0  9998,2 56796  70.0019  90.7001 0002886 268.6541  91.4287 14.98342437 60827,6950.154,96.106,574.025,570.014,0.0
56796.0,STARLINK-6049,PAYLOAD,2024-07-04 20:56:34,14.98330662,0.0002803,70.0019,89.6899,271.3305,88.7533,0.00019456,2.229e-05,0.0,0 STARLINK-6049,1 56796U 23078AF  24186.87262712  .00002229  00000-0  19456-3 0  9992,2 56796  70.0019  89.6899 0002803 271.3305  88.7533 14.98330662 61143,6950.191,96.107,574.004,570.108,0.0
